GPS BIII-4              
1 46826U 20078A   26074.28281818  .00000009  00000+0  00000+0 0  9997
2 46826  53.9997 214.5850 0068810 204.5097 332.9899  2.00565421 39623
GSAT0223 (GALILEO 27)   
1 49809U 21116A   26073.28386141 -.00000081  00000+0  00000+0 0  9990
2 49809  57.1915 344.2418 0001958 285.8605 269.7171  1.70475737 26566
GSAT0224 (GALILEO 28)   
1 49810U 21116B   26064.29072237 -.00000105  00000+0  00000+0 0  9998
2 49810  57.1948 344.4822 0001942 295.2728 253.6293  1.70475760 26438
GOES 18                 
1 51850U 22021A   26074.01225098  .00000096  00000+0  00000+0 0  9995
2 51850   0.0356  39.0500 0000826  24.7142 336.2554  1.00272979  5648
COSMOS 2557 (706K)      
1 52984U 22075A   26072.84916696 -.00000029  00000+0  00000+0 0  9990
2 52984  64.3539 317.8460 0011386 283.8913  76.0424  2.13102035 28686
METEOSAT-12 (MTG-I1)    
1 54743U 22170C   26074.28151144 -.00000008  00000+0  00000+0 0  9997
2 54743   0.7124  23.0968 0001756 290.7971 319.9822  1.00271392 12036
METEOR-M2 3             
1 57166U 23091A   26074.29808229  .00000003  00000+0  20072-4 0  9996
2 57166  98.6202 131.1499 0005097  86.5453 273.6309 14.24038213141154
COSMOS 2569 (703K)      
1 57517U 23114A   26072.99419750  .00000055  00000+0  00000+0 0  9995
2 57517  65.2480  75.8292 0012947 292.2655  67.6350  2.13103986 20236
METEOR-M2 4             
1 59051U 24039A   26074.27654127  .00000024  00000+0  30410-4 0  9998
2 59051  98.6912  34.8059 0008200  82.4837 277.7272 14.22418208105910
GSAT0225 (GALILEO 29)   
1 59598U 24079A   26073.38599072  .00000038  00000+0  00000+0 0  9998
2 59598  55.0556 103.7282 0002816 259.7008 104.1588  1.70475013 11709
GSAT0227 (GALILEO 30)   
1 59600U 24079C   26072.39006147  .00000031  00000+0  00000+0 0  9991
2 59600  55.0508 103.7545 0000363  35.4320 324.6432  1.70474883 11737
GSAT0232 (GALILEO 32)   
1 61182U 24167A   26048.66150565  .00000069  00000+0  00000+0 0  9995
2 61182  55.2225 224.5881 0003600 296.6314 116.1306  1.70443939  8265
GSAT0226 (GALILEO 31)   
1 61183U 24167B   26072.77594144  .00000035  00000+0  00000+0 0  9993
2 61183  55.2155 223.9355 0001584 137.4612  46.3182  1.70474359  9222
GSAT0234 (GALILEO 34)   
1 67162U 25302C   26074.08993896  .00000041  00000+0  00000+0 0  9998
2 67162  54.2713 104.8109 0002770 226.2129 140.3863  1.70474988  1575
